start=new Date('2023-04-13T00:00:00.000Z').valueOf();
sats=[{"COUNTRY_CODE":"US","EPHEMERIS_TYPE":"0","PERIAPSIS":"538.815","FILE":"3886349","SITE":"AFETR","SEMIMAJOR_AXIS":"6917.894","CENTER_NAME":"EARTH","REF_FRAME":"TEME","PERIOD":"95.438","RA_OF_ASC_NODE":"123.1597","GP_ID":"229982474","OBJECT_ID":"2022-062C","OBJECT_NAME":"STARLINK-4083","NORAD_CAT_ID":"52832","MEAN_MOTION":"15.08835411","CLASSIFICATION_TYPE":"U","RCS_SIZE":"LARGE","TLE_LINE1":"1 52832U 22062C   23102.34767833 -.00000337  00000-0 -30667-5 0  9993","LAUNCH_DATE":"2022-06-17","ARG_OF_PERICENTER":"110.1938","TIME_SYSTEM":"UTC","MEAN_MOTION_DOT":"-0.00000337","APOAPSIS":"540.704","DECAY_DATE":null,"EPOCH":"2023-04-12T08:20:39.407712","REV_AT_EPOCH":"4540","MEAN_MOTION_DDOT":"0.0000000000000","ECCENTRICITY":"0.00013650","TLE_LINE2":"2 52832  53.2167 123.1597 0001365 110.1938 249.9201 15.08835411 45408","BSTAR":"-0.00000306670000","OBJECT_TYPE":"PAYLOAD","MEAN_ELEMENT_THEORY":"SGP4","ELEMENT_SET_NO":"999","INCLINATION":"53.2167","MEAN_ANOMALY":"249.9201"},{"NORAD_CAT_ID":"52833","OBJECT_ID":"2022-062D","OBJECT_NAME":"STARLINK-4086","RCS_SIZE":"LARGE","CLASSIFICATION_TYPE":"U","MEAN_MOTION":"15.08835014","PERIAPSIS":"538.827","FILE":"3886349","COUNTRY_CODE":"US","EPHEMERIS_TYPE":"0","GP_ID":"229982723","SITE":"AFETR","SEMIMAJOR_AXIS":"6917.896","CENTER_NAME":"EARTH","RA_OF_ASC_NODE":"123.1762","PERIOD":"95.438","REF_FRAME":"TEME","OBJECT_TYPE":"PAYLOAD","MEAN_ELEMENT_THEORY":"SGP4","ELEMENT_SET_NO":"999","TLE_LINE2":"2 52833  53.2166 123.1762 0001349 104.7014 255.4128 15.08835014 45407","BSTAR":"0.00000468560000","MEAN_ANOMALY":"255.4128","INCLINATION":"53.2166","TIME_SYSTEM":"UTC","APOAPSIS":"540.694","MEAN_MOTION_DOT":"-0.00000213","TLE_LINE1":"1 52833U 22062D   23102.34399691 -.00000213  00000-0  46856-5 0  9996","LAUNCH_DATE":"2022-06-17","ARG_OF_PERICENTER":"104.7014","ECCENTRICITY":"0.00013490","MEAN_MOTION_DDOT":"0.0000000000000","DECAY_DATE":null,"EPOCH":"2023-04-12T08:15:21.333024","REV_AT_EPOCH":"4540"},{"INCLINATION":"53.2168","MEAN_ANOMALY":"270.7104","TLE_LINE2":"2 52834  53.2168 122.3171 0001237  89.4030 270.7104 15.08844426 45432","BSTAR":"0.00014873000000","ELEMENT_SET_NO":"999","OBJECT_TYPE":"PAYLOAD","MEAN_ELEMENT_THEORY":"SGP4","EPOCH":"2023-04-12T12:50:54.519072","REV_AT_EPOCH":"4543","DECAY_DATE":null,"MEAN_MOTION_DDOT":"0.0000000000000","ECCENTRICITY":"0.00012370","LAUNCH_DATE":"2022-06-17","ARG_OF_PERICENTER":"89.4030","TLE_LINE1":"1 52834U 22062E   23102.53535323  .00002080  00000-0  14873-3 0  9997","MEAN_MOTION_DOT":"0.00002080","APOAPSIS":"540.588","TIME_SYSTEM":"UTC","MEAN_MOTION":"15.08844426","CLASSIFICATION_TYPE":"U","RCS_SIZE":"LARGE","OBJECT_NAME":"STARLINK-4108","OBJECT_ID":"2022-062E","NORAD_CAT_ID":"52834","CENTER_NAME":"EARTH","PERIOD":"95.437","REF_FRAME":"TEME","RA_OF_ASC_NODE":"122.3171","SITE":"AFETR","SEMIMAJOR_AXIS":"6917.867","GP_ID":"229982971","EPHEMERIS_TYPE":"0","COUNTRY_CODE":"US","FILE":"3886349","PERIAPSIS":"538.876"},{"PERIOD":"95.438","REF_FRAME":"TEME","RA_OF_ASC_NODE":"122.3318","CENTER_NAME":"EARTH","SEMIMAJOR_AXIS":"6917.892","SITE":"AFETR","GP_ID":"229983209","EPHEMERIS_TYPE":"0","COUNTRY_CODE":"US","FILE":"3886349","PERIAPSIS":"538.867","MEAN_MOTION":"15.08836208","RCS_SIZE":"LARGE","CLASSIFICATION_TYPE":"U","OBJECT_NAME":"STARLINK-4080","OBJECT_ID":"2022-062F","NORAD_CAT_ID":"52835","REV_AT_EPOCH":"4543","EPOCH":"2023-04-12T12:45:37.072512","DECAY_DATE":null,"MEAN_MOTION_DDOT":"0.0000000000000","ECCENTRICITY":"0.00012870","ARG_OF_PERICENTER":"78.6037","LAUNCH_DATE":"2022-06-17","TLE_LINE1":"1 52835U 22062F   23102.53167908  .00000010  00000-0  18739-4 0  9995","APOAPSIS":"540.647","MEAN_MOTION_DOT":"0.00000010","TIME_SYSTEM":"UTC","INCLINATION":"53.2156","MEAN_ANOMALY":"281.5099","BSTAR":"0.00001873900000","TLE_LINE2":"2 52835  53.2156 122.3318 0001287  78.6037 281.5099 15.08836208 45437","ELEMENT_SET_NO":"999","MEAN_ELEMENT_THEORY":"SGP4","OBJECT_TYPE":"PAYLOAD"},{"CLASSIFICATION_TYPE":"U","RCS_SIZE":"LARGE","MEAN_MOTION":"15.08843353","NORAD_CAT_ID":"52836","OBJECT_ID":"2022-062G","OBJECT_NAME":"STARLINK-4043","GP_ID":"229981974","SITE":"AFETR","SEMIMAJOR_AXIS":"6917.870","CENTER_NAME":"EARTH","PERIOD":"95.437","REF_FRAME":"TEME","RA_OF_ASC_NODE":"122.3474","FILE":"3886349","PERIAPSIS":"538.966","COUNTRY_CODE":"US","EPHEMERIS_TYPE":"0","MEAN_ANOMALY":"275.5808","INCLINATION":"53.2151","OBJECT_TYPE":"PAYLOAD","MEAN_ELEMENT_THEORY":"SGP4","ELEMENT_SET_NO":"999","TLE_LINE2":"2 52836  53.2151 122.3474 0001112  84.5311 275.5808 15.08843353 45434","BSTAR":"0.00013681000000","MEAN_MOTION_DDOT":"0.0000000000000","ECCENTRICITY":"0.00011120","DECAY_DATE":null,"EPOCH":"2023-04-12T12:40:18.685920","REV_AT_EPOCH":"4543","TIME_SYSTEM":"UTC","APOAPSIS":"540.504","MEAN_MOTION_DOT":"0.00001890","TLE_LINE1":"1 52836U 22062G   23102.52799405  .00001890  00000-0  13681-3 0  9995","LAUNCH_DATE":"2022-06-17","ARG_OF_PERICENTER":"84.5311"},{"OBJECT_ID":"2022-062H","OBJECT_NAME":"STARLINK-4036","NORAD_CAT_ID":"52837","MEAN_MOTION":"15.08836630","CLASSIFICATION_TYPE":"U","RCS_SIZE":"LARGE","COUNTRY_CODE":"US","EPHEMERIS_TYPE":"0","PERIAPSIS":"538.892","FILE":"3886349","SITE":"AFETR","SEMIMAJOR_AXIS":"6917.891","CENTER_NAME":"EARTH","PERIOD":"95.438","REF_FRAME":"TEME","RA_OF_ASC_NODE":"122.3783","GP_ID":"229982224","TLE_LINE2":"2 52837  53.2142 122.3783 0001249 106.0821 254.0309 15.08836630 45433","BSTAR":"0.00013021000000","OBJECT_TYPE":"PAYLOAD","MEAN_ELEMENT_THEORY":"SGP4","ELEMENT_SET_NO":"999","INCLINATION":"53.2142","MEAN_ANOMALY":"254.0309","TLE_LINE1":"1 52837U 22062H   23102.52063865  .00001785  00000-0  13021-3 0  9991","LAUNCH_DATE":"2022-06-17","ARG_OF_PERICENTER":"106.0821","TIME_SYSTEM":"UTC","MEAN_MOTION_DOT":"0.00001785","APOAPSIS":"540.620","DECAY_DATE":null,"EPOCH":"2023-04-12T12:29:43.179360","REV_AT_EPOCH":"4543","ECCENTRICITY":"0.00012490","MEAN_MOTION_DDOT":"0.0000000000000"},{"MEAN_MOTION_DDOT":"0.0000000000000","ECCENTRICITY":"0.00013290","DECAY_DATE":null,"EPOCH":"2023-04-12T12:35:00.924864","REV_AT_EPOCH":"4543","TIME_SYSTEM":"UTC","MEAN_MOTION_DOT":"0.00000523","APOAPSIS":"540.672","TLE_LINE1":"1 52838U 22062J   23102.52431626  .00000523  00000-0  50971-4 0  9991","LAUNCH_DATE":"2022-06-17","ARG_OF_PERICENTER":"83.7704","MEAN_ANOMALY":"276.3439","INCLINATION":"53.2166","OBJECT_TYPE":"PAYLOAD","MEAN_ELEMENT_THEORY":"SGP4","ELEMENT_SET_NO":"999","TLE_LINE2":"2 52838  53.2166 122.3532 0001329  83.7704 276.3439 15.08837761 45439","BSTAR":"0.00005097100000","GP_ID":"229983472","SITE":"AFETR","SEMIMAJOR_AXIS":"6917.887","CENTER_NAME":"EARTH","REF_FRAME":"TEME","PERIOD":"95.438","RA_OF_ASC_NODE":"122.3532","FILE":"3886349","PERIAPSIS":"538.833","COUNTRY_CODE":"US","EPHEMERIS_TYPE":"0","CLASSIFICATION_TYPE":"U","RCS_SIZE":"LARGE","MEAN_MOTION":"15.08837761","NORAD_CAT_ID":"52838","OBJECT_ID":"2022-062J","OBJECT_NAME":"STARLINK-4092"},{"ELEMENT_SET_NO":"999","OBJECT_TYPE":"PAYLOAD","MEAN_ELEMENT_THEORY":"SGP4","TLE_LINE2":"2 52839  53.2146 123.3044 0001376 101.8878 258.2269 15.08835357 45409","BSTAR":"-0.00000445020000","MEAN_ANOMALY":"258.2269","INCLINATION":"53.2146","APOAPSIS":"540.711","MEAN_MOTION_DOT":"-0.00000359","TIME_SYSTEM":"UTC","LAUNCH_DATE":"2022-06-17","ARG_OF_PERICENTER":"101.8878","TLE_LINE1":"1 52839U 22062K   23102.31455792 -.00000359  00000-0 -44502-5 0  9992","ECCENTRICITY":"0.00013760","MEAN_MOTION_DDOT":"0.0000000000000","EPOCH":"2023-04-12T07:32:57.804288","REV_AT_EPOCH":"4540","DECAY_DATE":null,"NORAD_CAT_ID":"52839","OBJECT_NAME":"STARLINK-4048","OBJECT_ID":"2022-062K","CLASSIFICATION_TYPE":"U","RCS_SIZE":"LARGE","MEAN_MOTION":"15.08835357","FILE":"3886349","PERIAPSIS":"538.808","EPHEMERIS_TYPE":"0","COUNTRY_CODE":"US","GP_ID":"229983710","CENTER_NAME":"EARTH","PERIOD":"95.438","RA_OF_ASC_NODE":"123.3044","REF_FRAME":"TEME","SITE":"AFETR","SEMIMAJOR_AXIS":"6917.895"},{"TLE_LINE2":"2 52840  53.2159 123.2896 0001466  78.8340 281.2816 15.08839100 45400","BSTAR":"0.00001707600000","ELEMENT_SET_NO":"999","OBJECT_TYPE":"PAYLOAD","MEAN_ELEMENT_THEORY":"SGP4","INCLINATION":"53.2159","MEAN_ANOMALY":"281.2816","LAUNCH_DATE":"2022-06-17","ARG_OF_PERICENTER":"78.8340","TLE_LINE1":"1 52840U 22062L   23102.31823895 -.00000016  00000-0  17076-4 0  9991","APOAPSIS":"540.762","MEAN_MOTION_DOT":"-0.00000016","TIME_SYSTEM":"UTC","EPOCH":"2023-04-12T07:38:15.845280","REV_AT_EPOCH":"4540","DECAY_DATE":null,"MEAN_MOTION_DDOT":"0.0000000000000","ECCENTRICITY":"0.00014660","OBJECT_NAME":"STARLINK-4049","OBJECT_ID":"2022-062L","NORAD_CAT_ID":"52840","MEAN_MOTION":"15.08839100","CLASSIFICATION_TYPE":"U","RCS_SIZE":"LARGE","EPHEMERIS_TYPE":"0","COUNTRY_CODE":"US","FILE":"3886349","PERIAPSIS":"538.734","CENTER_NAME":"EARTH","RA_OF_ASC_NODE":"123.2896","PERIOD":"95.438","REF_FRAME":"TEME","SITE":"AFETR","SEMIMAJOR_AXIS":"6917.883","GP_ID":"229982475"},{"LAUNCH_DATE":"2022-06-17","ARG_OF_PERICENTER":"87.2207","TLE_LINE1":"1 52841U 22062M   23102.76719574 -.00003387  00000-0 -19475-3 0  9998","APOAPSIS":"540.718","MEAN_MOTION_DOT":"-0.00003387","TIME_SYSTEM":"UTC","EPOCH":"2023-04-12T18:24:45.711936","REV_AT_EPOCH":"4596","DECAY_DATE":null,"ECCENTRICITY":"0.00014540","MEAN_MOTION_DDOT":"0.0000000000000","TLE_LINE2":"2 52841  53.2154 121.2730 0001454  87.2207 272.8952 15.08850912 45966","BSTAR":"-0.00019475000000","ELEMENT_SET_NO":"999","OBJECT_TYPE":"PAYLOAD","MEAN_ELEMENT_THEORY":"SGP4","INCLINATION":"53.2154","MEAN_ANOMALY":"272.8952","EPHEMERIS_TYPE":"0","COUNTRY_CODE":"US","PERIAPSIS":"538.706","FILE":"3886489","CENTER_NAME":"EARTH","RA_OF_ASC_NODE":"121.2730","PERIOD":"95.437","REF_FRAME":"TEME","SITE":"AFETR","SEMIMAJOR_AXIS":"6917.847","GP_ID":"229989476","OBJECT_NAME":"STARLINK-4065","OBJECT_ID":"2022-062M","NORAD_CAT_ID":"52841","MEAN_MOTION":"15.08850912","CLASSIFICATION_TYPE":"U","RCS_SIZE":"LARGE"}];
